ORBCOMM FM103           
1 40091U 14040F   25363.92289969  .00001027  00000+0  25494-3 0  9992
2 40091  47.0032 173.1653 0001248 112.0451 248.0567 14.58562311592674
ORBCOMM FM114           
1 41179U 15081A   25363.93942751  .00001215  00000+0  29479-3 0  9998
2 41179  47.0049  82.0403 0002113 170.0498 190.0430 14.58586676533049
ORBCOMM FM119           
1 41180U 15081B   25364.00458654  .00001315  00000+0  31644-3 0  9991
2 41180  47.0015 351.0913 0001750 253.1939 106.8755 14.58536271534309
ORBCOMM FM105           
1 41181U 15081C   25364.06629598  .00000487  00000+0  18154-3 0  9995
2 41181  47.0021  14.8972 0000997 147.2842 212.8101 14.45421088529081
ORBCOMM FM110           
1 41182U 15081D   25363.92905995  .00001637  00000+0  38437-3 0  9992
2 41182  47.0023  81.5836 0002189 349.6279  10.4561 14.58620955532917
ORBCOMM FM118           
1 41183U 15081E   25363.96362334  .00001419  00000+0  33811-3 0  9990
2 41183  47.0045  81.7220 0003124 313.5784  46.4843 14.58610325533027
ORBCOMM FM112           
1 41184U 15081F   25364.03476360  .00001373  00000+0  32829-3 0  9992
2 41184  46.9999 349.9141 0001232 191.0111 169.0748 14.58614493534258
ORBCOMM FM113           
1 41185U 15081G   25364.01206262  .00001309  00000+0  31465-3 0  9997
2 41185  47.0019 350.3803 0001219 210.3601 149.7214 14.58610485534237
